STARLINK-5472           
1 54767U 22175K   26068.31862347 -.00000918  00000+0 -39590-4 0  9991
2 54767  53.2179  45.7383 0001251 111.2667 248.8459 15.08835972179860
2024-205L               
1 61904U 24205L   26066.14074752  .00013606  00000+0  79283-3 0  9990
2 61904  97.4213 140.2188 0054772 346.2042  13.7688 15.10822925 72825
