[{"OBJECT_NAME":"STARLINK-5472","OBJECT_ID":"2022-175K","EPOCH":"2026-03-09T07:38:49.067808","MEAN_MOTION":15.08835972,"ECCENTRICITY":0.00012519,"INCLINATION":53.2179,"RA_OF_ASC_NODE":45.7383,"ARG_OF_PERICENTER":111.2667,"MEAN_ANOMALY":248.8459,"EPHEMERIS_TYPE":0,"CLASSIFICATION_TYPE":"U","NORAD_CAT_ID":54767,"ELEMENT_SET_NO":999,"REV_AT_EPOCH":17986,"BSTAR":-3.9589506e-5,"MEAN_MOTION_DOT":-9.18e-6,"MEAN_MOTION_DDOT":0},{"OBJECT_NAME":"OBJECT L","OBJECT_ID":"2024-205L","EPOCH":"2026-03-07T03:22:40.585728","MEAN_MOTION":15.10822925,"ECCENTRICITY":0.00547724,"INCLINATION":97.4213,"RA_OF_ASC_NODE":140.2188,"ARG_OF_PERICENTER":346.2042,"MEAN_ANOMALY":13.7688,"EPHEMERIS_TYPE":0,"CLASSIFICATION_TYPE":"U","NORAD_CAT_ID":61904,"ELEMENT_SET_NO":999,"REV_AT_EPOCH":7282,"BSTAR":0.00079283043,"MEAN_MOTION_DOT":0.00013606,"MEAN_MOTION_DDOT":0}]
